start=new Date('2023-03-13T00:00:00.000Z').valueOf();
sats=[{"NORAD_CAT_ID":"48105","COUNTRY_CODE":"US","FILE":"3858534","OBJECT_ID":"2021-027P","TIME_SYSTEM":"UTC","APOAPSIS":"547.809","ARG_OF_PERICENTER":"89.5749","SITE":"AFETR","CLASSIFICATION_TYPE":"U","RCS_SIZE":"LARGE","PERIAPSIS":"546.842","INCLINATION":"53.0546","OBJECT_NAME":"STARLINK-2440","LAUNCH_DATE":"2021-04-07","GP_ID":"227930139","ELEMENT_SET_NO":"999","EPHEMERIS_TYPE":"0","MEAN_MOTION_DOT":"-0.00006696","MEAN_MOTION_DDOT":"0.0000000000000","MEAN_ELEMENT_THEORY":"SGP4","EPOCH":"2023-03-12T05:03:26.914752","REF_FRAME":"TEME","RA_OF_ASC_NODE":"330.4333","SEMIMAJOR_AXIS":"6925.461","DECAY_DATE":null,"TLE_LINE2":"2 48105  53.0546 330.4333 0000698  89.5749 270.5320 15.06363362108583","ECCENTRICITY":"0.00006980","MEAN_ANOMALY":"270.5320","BSTAR":"-0.00043149000000","TLE_LINE1":"1 48105U 21027P   23071.21072818 -.00006696  00000-0 -43149-3 0  9995","OBJECT_TYPE":"PAYLOAD","CENTER_NAME":"EARTH","MEAN_MOTION":"15.06363362","PERIOD":"95.594","REV_AT_EPOCH":"10858"},{"APOAPSIS":"548.206","TIME_SYSTEM":"UTC","ARG_OF_PERICENTER":"86.6022","PERIAPSIS":"546.462","RCS_SIZE":"LARGE","SITE":"AFETR","CLASSIFICATION_TYPE":"U","GP_ID":"227930868","LAUNCH_DATE":"2021-04-07","INCLINATION":"53.0546","OBJECT_NAME":"STARLINK-2442","NORAD_CAT_ID":"48106","FILE":"3858534","COUNTRY_CODE":"US","OBJECT_ID":"2021-027Q","TLE_LINE2":"2 48106  53.0546  19.9175 0001259  86.6022 273.5111 15.06360730107905","DECAY_DATE":null,"SEMIMAJOR_AXIS":"6925.469","MEAN_ANOMALY":"273.5111","ECCENTRICITY":"0.00012590","CENTER_NAME":"EARTH","OBJECT_TYPE":"PAYLOAD","TLE_LINE1":"1 48106U 21027Q   23071.32776350  .00052768  00000-0  35388-2 0  9994","BSTAR":"0.00353880000000","REV_AT_EPOCH":"10790","PERIOD":"95.595","MEAN_MOTION":"15.06360730","MEAN_MOTION_DOT":"0.00052768","EPHEMERIS_TYPE":"0","ELEMENT_SET_NO":"999","MEAN_ELEMENT_THEORY":"SGP4","MEAN_MOTION_DDOT":"0.0000000000000","REF_FRAME":"TEME","EPOCH":"2023-03-12T07:51:58.766400","RA_OF_ASC_NODE":"19.9175"},{"NORAD_CAT_ID":"48107","OBJECT_ID":"2021-027R","COUNTRY_CODE":"US","FILE":"3858550","ARG_OF_PERICENTER":"99.4099","APOAPSIS":"548.397","TIME_SYSTEM":"UTC","GP_ID":"227935486","OBJECT_NAME":"STARLINK-2443","INCLINATION":"53.0557","LAUNCH_DATE":"2021-04-07","PERIAPSIS":"545.925","SITE":"AFETR","CLASSIFICATION_TYPE":"U","RCS_SIZE":"LARGE","MEAN_MOTION_DOT":"0.00013462","EPHEMERIS_TYPE":"0","ELEMENT_SET_NO":"999","RA_OF_ASC_NODE":"17.4583","REF_FRAME":"TEME","EPOCH":"2023-03-12T20:57:29.631168","MEAN_MOTION_DDOT":"0.0000000000000","MEAN_ELEMENT_THEORY":"SGP4","ECCENTRICITY":"0.00017850","MEAN_ANOMALY":"260.7092","TLE_LINE2":"2 48107  53.0557  17.4583 0001785  99.4099 260.7092 15.06417226107587","SEMIMAJOR_AXIS":"6925.296","DECAY_DATE":null,"REV_AT_EPOCH":"10758","PERIOD":"95.591","MEAN_MOTION":"15.06417226","OBJECT_TYPE":"PAYLOAD","CENTER_NAME":"EARTH","BSTAR":"0.00092046000000","TLE_LINE1":"1 48107U 21027R   23071.87325962  .00013462  00000-0  92046-3 0  9997"},{"FILE":"3858534","COUNTRY_CODE":"US","OBJECT_ID":"2021-027S","NORAD_CAT_ID":"48108","RCS_SIZE":"LARGE","CLASSIFICATION_TYPE":"U","SITE":"AFETR","PERIAPSIS":"546.657","LAUNCH_DATE":"2021-04-07","OBJECT_NAME":"STARLINK-2444","INCLINATION":"53.0553","GP_ID":"227929889","TIME_SYSTEM":"UTC","APOAPSIS":"547.926","ARG_OF_PERICENTER":"55.0473","MEAN_ELEMENT_THEORY":"SGP4","MEAN_MOTION_DDOT":"0.0000000000000","REF_FRAME":"TEME","RA_OF_ASC_NODE":"30.2600","EPOCH":"2023-03-12T05:59:10.527360","ELEMENT_SET_NO":"999","MEAN_MOTION_DOT":"0.00041381","EPHEMERIS_TYPE":"0","TLE_LINE1":"1 48108U 21027S   23071.24942740  .00041381  00000-0  27826-2 0  9992","BSTAR":"0.00278260000000","CENTER_NAME":"EARTH","OBJECT_TYPE":"PAYLOAD","MEAN_MOTION":"15.06374623","PERIOD":"95.594","REV_AT_EPOCH":"10774","DECAY_DATE":null,"SEMIMAJOR_AXIS":"6925.426","TLE_LINE2":"2 48108  53.0553  30.2600 0000916  55.0473 305.0602 15.06374623107747","MEAN_ANOMALY":"305.0602","ECCENTRICITY":"0.00009160"},{"BSTAR":"0.00133750000000","TLE_LINE1":"1 48109U 21027T   23071.92670544  .00019709  00000-0  13375-2 0  9991","OBJECT_TYPE":"PAYLOAD","CENTER_NAME":"EARTH","PERIOD":"95.591","MEAN_MOTION":"15.06423951","REV_AT_EPOCH":"10771","SEMIMAJOR_AXIS":"6925.275","DECAY_DATE":null,"TLE_LINE2":"2 48109  53.0568  37.2184 0001441  73.9539 286.1609 15.06423951107716","ECCENTRICITY":"0.00014410","MEAN_ANOMALY":"286.1609","MEAN_MOTION_DDOT":"0.0000000000000","MEAN_ELEMENT_THEORY":"SGP4","RA_OF_ASC_NODE":"37.2184","REF_FRAME":"TEME","EPOCH":"2023-03-12T22:14:27.350016","ELEMENT_SET_NO":"999","MEAN_MOTION_DOT":"0.00019709","EPHEMERIS_TYPE":"0","SITE":"AFETR","CLASSIFICATION_TYPE":"U","RCS_SIZE":"LARGE","PERIAPSIS":"546.142","OBJECT_NAME":"STARLINK-2445","INCLINATION":"53.0568","LAUNCH_DATE":"2021-04-07","GP_ID":"227962357","TIME_SYSTEM":"UTC","APOAPSIS":"548.138","ARG_OF_PERICENTER":"73.9539","COUNTRY_CODE":"US","FILE":"3858743","OBJECT_ID":"2021-027T","NORAD_CAT_ID":"48109"},{"PERIAPSIS":"546.341","SITE":"AFETR","CLASSIFICATION_TYPE":"U","RCS_SIZE":"LARGE","GP_ID":"227962108","INCLINATION":"53.0547","OBJECT_NAME":"STARLINK-2447","LAUNCH_DATE":"2021-04-07","APOAPSIS":"548.085","TIME_SYSTEM":"UTC","ARG_OF_PERICENTER":"100.5319","COUNTRY_CODE":"US","FILE":"3858743","OBJECT_ID":"2021-027U","NORAD_CAT_ID":"48110","OBJECT_TYPE":"PAYLOAD","CENTER_NAME":"EARTH","BSTAR":"0.00035980000000","TLE_LINE1":"1 48110U 21027U   23071.90182587  .00005082  00000-0  35980-3 0  9992","REV_AT_EPOCH":"10785","PERIOD":"95.592","MEAN_MOTION":"15.06400193","TLE_LINE2":"2 48110  53.0547  27.3351 0001259 100.5319 259.5812 15.06400193107859","SEMIMAJOR_AXIS":"6925.348","DECAY_DATE":null,"ECCENTRICITY":"0.00012590","MEAN_ANOMALY":"259.5812","MEAN_MOTION_DDOT":"0.0000000000000","MEAN_ELEMENT_THEORY":"SGP4","REF_FRAME":"TEME","EPOCH":"2023-03-12T21:38:37.755168","RA_OF_ASC_NODE":"27.3351","MEAN_MOTION_DOT":"0.00005082","EPHEMERIS_TYPE":"0","ELEMENT_SET_NO":"999"},{"OBJECT_ID":"2021-027V","COUNTRY_CODE":"US","FILE":"3858534","NORAD_CAT_ID":"48111","GP_ID":"227930633","OBJECT_NAME":"STARLINK-2448","INCLINATION":"53.0537","LAUNCH_DATE":"2021-04-07","PERIAPSIS":"546.444","SITE":"AFETR","CLASSIFICATION_TYPE":"U","RCS_SIZE":"LARGE","ARG_OF_PERICENTER":"56.5582","APOAPSIS":"548.116","TIME_SYSTEM":"UTC","REF_FRAME":"TEME","EPOCH":"2023-03-12T07:08:10.944096","RA_OF_ASC_NODE":"30.0198","MEAN_ELEMENT_THEORY":"SGP4","MEAN_MOTION_DDOT":"0.0000000000000","MEAN_MOTION_DOT":"0.00060914","EPHEMERIS_TYPE":"0","ELEMENT_SET_NO":"999","REV_AT_EPOCH":"10776","MEAN_MOTION":"15.06378314","PERIOD":"95.594","OBJECT_TYPE":"PAYLOAD","CENTER_NAME":"EARTH","BSTAR":"0.00407550000000","TLE_LINE1":"1 48111U 21027V   23071.29734889  .00060914  00000-0  40755-2 0  9993","ECCENTRICITY":"0.00012070","MEAN_ANOMALY":"303.5523","TLE_LINE2":"2 48111  53.0537  30.0198 0001207  56.5582 303.5523 15.06378314107762","SEMIMAJOR_AXIS":"6925.415","DECAY_DATE":null},{"ARG_OF_PERICENTER":"110.3619","APOAPSIS":"548.045","TIME_SYSTEM":"UTC","GP_ID":"227961606","LAUNCH_DATE":"2021-04-07","INCLINATION":"53.0537","OBJECT_NAME":"STARLINK-2449","PERIAPSIS":"546.283","RCS_SIZE":"LARGE","CLASSIFICATION_TYPE":"U","SITE":"AFETR","NORAD_CAT_ID":"48112","OBJECT_ID":"2021-027W","FILE":"3858743","COUNTRY_CODE":"US","MEAN_ANOMALY":"249.7507","ECCENTRICITY":"0.00012720","TLE_LINE2":"2 48112  53.0537  42.2637 0001272 110.3619 249.7507 15.06416050107648","DECAY_DATE":null,"SEMIMAJOR_AXIS":"6925.299","REV_AT_EPOCH":"10764","PERIOD":"95.591","MEAN_MOTION":"15.06416050","CENTER_NAME":"EARTH","OBJECT_TYPE":"PAYLOAD","TLE_LINE1":"1 48112U 21027W   23071.95390522  .00014059  00000-0  96039-3 0  9995","BSTAR":"0.00096039000000","EPHEMERIS_TYPE":"0","MEAN_MOTION_DOT":"0.00014059","ELEMENT_SET_NO":"999","REF_FRAME":"TEME","RA_OF_ASC_NODE":"42.2637","EPOCH":"2023-03-12T22:53:37.411008","MEAN_ELEMENT_THEORY":"SGP4","MEAN_MOTION_DDOT":"0.0000000000000"},{"OBJECT_ID":"2021-027X","COUNTRY_CODE":"US","FILE":"3858534","NORAD_CAT_ID":"48113","INCLINATION":"53.0532","OBJECT_NAME":"STARLINK-2450","LAUNCH_DATE":"2021-04-07","GP_ID":"227930140","SITE":"AFETR","CLASSIFICATION_TYPE":"U","RCS_SIZE":"LARGE","PERIAPSIS":"546.131","ARG_OF_PERICENTER":"86.7301","TIME_SYSTEM":"UTC","APOAPSIS":"548.085","EPOCH":"2023-03-12T10:12:35.830080","REF_FRAME":"TEME","RA_OF_ASC_NODE":"39.4696","MEAN_MOTION_DDOT":"0.0000000000000","MEAN_ELEMENT_THEORY":"SGP4","ELEMENT_SET_NO":"999","EPHEMERIS_TYPE":"0","MEAN_MOTION_DOT":"0.00032956","MEAN_MOTION":"15.06434376","PERIOD":"95.590","REV_AT_EPOCH":"10762","BSTAR":"0.00221900000000","TLE_LINE1":"1 48113U 21027X   23071.42541470  .00032956  00000-0  22190-2 0  9990","OBJECT_TYPE":"PAYLOAD","CENTER_NAME":"EARTH","ECCENTRICITY":"0.00014110","MEAN_ANOMALY":"273.3850","SEMIMAJOR_AXIS":"6925.243","DECAY_DATE":null,"TLE_LINE2":"2 48113  53.0532  39.4696 0001411  86.7301 273.3850 15.06434376107629"},{"CENTER_NAME":"EARTH","OBJECT_TYPE":"PAYLOAD","TLE_LINE1":"1 48114U 21027Y   23071.31988665  .00008876  00000-0  61392-3 0  9992","BSTAR":"0.00061392000000","REV_AT_EPOCH":"10729","MEAN_MOTION":"15.06404775","PERIOD":"95.592","TLE_LINE2":"2 48114  53.0561  34.9415 0002098 101.8577 258.2647 15.06404775107296","DECAY_DATE":null,"SEMIMAJOR_AXIS":"6925.334","MEAN_ANOMALY":"258.2647","ECCENTRICITY":"0.00020980","MEAN_ELEMENT_THEORY":"SGP4","MEAN_MOTION_DDOT":"0.0000000000000","RA_OF_ASC_NODE":"34.9415","REF_FRAME":"TEME","EPOCH":"2023-03-12T07:40:38.206560","MEAN_MOTION_DOT":"0.00008876","EPHEMERIS_TYPE":"0","ELEMENT_SET_NO":"999","PERIAPSIS":"545.746","RCS_SIZE":"LARGE","SITE":"AFETR","CLASSIFICATION_TYPE":"U","GP_ID":"227936777","LAUNCH_DATE":"2021-04-07","INCLINATION":"53.0561","OBJECT_NAME":"STARLINK-2451","APOAPSIS":"548.652","TIME_SYSTEM":"UTC","ARG_OF_PERICENTER":"101.8577","FILE":"3858623","COUNTRY_CODE":"US","OBJECT_ID":"2021-027Y","NORAD_CAT_ID":"48114"}];
